{
"type": "FeatureCollection",
"name": "avalanches",
"crs": { "type": "name", "properties": { "name": "urn:ogc:def:crs:EPSG::2056" } },
"features": [
{ "type": "Feature", "properties": { "id": 1 }, "geometry": { "type": "MultiPolygon", "coordinates": [ [ [ [ 2667324.50905901286751, 1170874.322037271922454 ], [ 2667353.040285009425133, 1170896.59031122061424 ], [ 2667427.49982602475211, 1170889.631475611589849 ], [ 2667462.989887630566955, 1170909.812098877504468 ], [ 2667497.784065674990416, 1170904.245030390331522 ], [ 2667533.27412728080526, 1170826.306071570375934 ], [ 2667504.742901283781976, 1170756.021831920137629 ], [ 2667440.721613681875169, 1170756.717715481063351 ], [ 2667321.725524769164622, 1170799.166612695436925 ], [ 2667311.287271355744451, 1170840.919626349117607 ], [ 2667324.50905901286751, 1170874.322037271922454 ] ] ] ] } },
{ "type": "Feature", "properties": { "id": 2 }, "geometry": { "type": "MultiPolygon", "coordinates": [ [ [ [ 2667549.975332741625607, 1170027.431743665365502 ], [ 2667543.016497132834047, 1170108.8501202899497 ], [ 2667579.898325860034674, 1170177.046709257410839 ], [ 2667685.672627116087824, 1170184.701428427360952 ], [ 2667765.699236618820578, 1170158.953736674273387 ], [ 2667796.318113297689706, 1169991.245798499090597 ], [ 2667639.744312096852809, 1169959.931038258830085 ], [ 2667549.975332741625607, 1170027.431743665365502 ] ] ] ] } },
{ "type": "Feature", "properties": { "id": 3 }, "geometry": { "type": "MultiPolygon", "coordinates": [ [ [ [ 2668156.785797839518636, 1169994.725216303253546 ], [ 2668120.599852673243731, 1170083.102428536629304 ], [ 2668175.574653983581811, 1170131.814277799334377 ], [ 2668262.560099095571786, 1170133.206044920952991 ], [ 2668291.091325092129409, 1170124.855442190309986 ], [ 2668293.178975774906576, 1170069.880640879739076 ], [ 2668311.96783191896975, 1170019.77702449541539 ], [ 2668261.864215534646064, 1170003.075819034129381 ], [ 2668156.785797839518636, 1169994.725216303253546 ] ] ] ] } },
{ "type": "Feature", "properties": { "id": 4 }, "geometry": { "type": "MultiPolygon", "coordinates": [ [ [ [ 2668405.216229078359902, 1170305.089284461690113 ], [ 2668405.912112639285624, 1170238.284462615847588 ], [ 2668451.840427658520639, 1170097.715983315370977 ], [ 2668591.713023397605866, 1170095.628332632826641 ], [ 2668665.476680852472782, 1170078.927127171307802 ], [ 2668716.276180797722191, 1170173.567291452782229 ], [ 2668716.972064358647913, 1170297.43456529174 ], [ 2668483.155187898315489, 1170355.888784406706691 ], [ 2668405.216229078359902, 1170305.089284461690113 ] ] ] ] } },
{ "type": "Feature", "properties": { "id": 5 }, "geometry": { "type": "MultiPolygon", "coordinates": [ [ [ [ 2668475.848410508595407, 1169560.145932525629178 ], [ 2668538.47793098911643, 1169558.058281842852011 ], [ 2668544.392941256519407, 1169593.200401667971164 ], [ 2668562.48591383965686, 1169611.293374251108617 ], [ 2668528.03967757569626, 1169668.703768024919555 ], [ 2668459.49514682777226, 1169652.350504343863577 ], [ 2668436.530989318154752, 1169615.120733836200088 ], [ 2668475.848410508595407, 1169560.145932525629178 ] ] ] ] } },
{ "type": "Feature", "properties": { "id": 6 }, "geometry": { "type": "MultiPolygon", "coordinates": [ [ [ [ 2669987.655446548946202, 1169817.9707918362692 ], [ 2670005.052535571623594, 1169840.934949345653877 ], [ 2670047.501432785764337, 1169853.460853441851214 ], [ 2670095.517398487776518, 1169814.49137403187342 ], [ 2670114.306254631839693, 1169725.41827823757194 ], [ 2670062.11498756473884, 1169651.654620782937855 ], [ 2669994.614282158203423, 1169653.74227146548219 ], [ 2669962.603638357017189, 1169706.629422093508765 ], [ 2669958.428336991462857, 1169753.949504234129563 ], [ 2669987.655446548946202, 1169817.9707918362692 ] ] ] ] } },
{ "type": "Feature", "properties": { "id": 7 }, "geometry": { "type": "MultiPolygon", "coordinates": [ [ [ [ 2670211.034069594927132, 1170117.200723020127043 ], [ 2670240.261179152410477, 1170048.308250491740182 ], [ 2670288.277144853956997, 1170005.163469716440886 ], [ 2670382.221425574738532, 1170078.231243610149249 ], [ 2670346.035480407997966, 1170158.257853112882003 ], [ 2670299.41128182830289, 1170203.490284570958465 ], [ 2670245.828247639350593, 1170161.041387356352061 ], [ 2670211.034069594927132, 1170117.200723020127043 ] ] ] ] } },
{ "type": "Feature", "properties": { "id": 8 }, "geometry": { "type": "MultiPolygon", "coordinates": [ [ [ [ 2669864.48405627021566, 1170470.709571953862906 ], [ 2669920.850624702405185, 1170465.49044524715282 ], [ 2669951.121559601277113, 1170437.655102811520919 ], [ 2670006.096360912080854, 1170479.06017468450591 ], [ 2670023.493449934292585, 1170507.243458900833502 ], [ 2669993.570456815883517, 1170550.736181456595659 ], [ 2669894.059107608161867, 1170543.777345847571269 ], [ 2669857.177278880961239, 1170511.766702046617866 ], [ 2669857.177278880961239, 1170480.104000025894493 ], [ 2669864.48405627021566, 1170470.709571953862906 ] ] ] ] } },
{ "type": "Feature", "properties": { "id": 9 }, "geometry": { "type": "MultiPolygon", "coordinates": [ [ [ [ 2669582.129301438573748, 1171376.57599734631367 ], [ 2669581.433417877648026, 1171451.035538361873478 ], [ 2669667.722979428246617, 1171492.788552015321329 ], [ 2669827.776198433246464, 1171507.402106794063002 ], [ 2669795.76555463206023, 1171326.472380962222815 ], [ 2669602.309924704488367, 1171319.513545353198424 ], [ 2669582.129301438573748, 1171376.57599734631367 ] ] ] ] } },
{ "type": "Feature", "properties": { "id": 10 }, "geometry": { "type": "MultiPolygon", "coordinates": [ [ [ [ 2670607.165786632802337, 1172110.907124977558851 ], [ 2670595.683707877993584, 1172037.839351084083319 ], [ 2670729.989235130138695, 1171995.042512089246884 ], [ 2670783.572269318625331, 1172089.68267637048848 ], [ 2670681.277385867666453, 1172133.871282487176359 ], [ 2670607.165786632802337, 1172110.907124977558851 ] ] ] ] } },
{ "type": "Feature", "properties": { "id": 11 }, "geometry": { "type": "MultiPolygon", "coordinates": [ [ [ [ 2670818.018505583051592, 1172183.974898871267214 ], [ 2670861.163286358118057, 1172273.743878226261586 ], [ 2670927.968108203727752, 1172273.743878226261586 ], [ 2670932.839293130207807, 1172212.506124867824838 ], [ 2670931.447526008356363, 1172149.876604387536645 ], [ 2670916.833971229381859, 1172123.433029073523358 ], [ 2670828.456758996006101, 1172112.298892099410295 ], [ 2670818.018505583051592, 1172183.974898871267214 ] ] ] ] } },
{ "type": "Feature", "properties": { "id": 12 }, "geometry": { "type": "MultiPolygon", "coordinates": [ [ [ [ 2670734.164536495227367, 1171809.589543111156672 ], [ 2670733.468652934301645, 1171859.345217714784667 ], [ 2670752.257509078364819, 1171903.533823831472546 ], [ 2670767.914889198727906, 1171910.840601220959798 ], [ 2670796.098173414822668, 1171909.100892318645492 ], [ 2670827.760875435080379, 1171878.482015639310703 ], [ 2670847.593556920532137, 1171800.543056819587946 ], [ 2670777.657259051222354, 1171781.058317114599049 ], [ 2670734.164536495227367, 1171809.589543111156672 ] ] ] ] } },
{ "type": "Feature", "properties": { "id": 13 }, "geometry": { "type": "MultiPolygon", "coordinates": [ [ [ [ 2671141.778332287911326, 1170963.047191285528243 ], [ 2671184.57517128251493, 1170991.926359062548727 ], [ 2671266.68943146802485, 1171004.800204939208925 ], [ 2671307.398619780316949, 1170983.575756331905723 ], [ 2671304.963027317076921, 1170937.299499532673508 ], [ 2671214.150222620461136, 1170882.672640002565458 ], [ 2671162.654839114751667, 1170922.338002973468974 ], [ 2671141.778332287911326, 1170963.047191285528243 ] ] ] ] } },
{ "type": "Feature", "properties": { "id": 14 }, "geometry": { "type": "MultiPolygon", "coordinates": [ [ [ [ 2671309.486270462162793, 1170233.413277690531686 ], [ 2671327.579243045765907, 1170157.561969553353265 ], [ 2671392.296414208598435, 1170142.25253121368587 ], [ 2671495.287181220483035, 1170140.860764091834426 ], [ 2671506.421318194828928, 1170177.742592819035053 ], [ 2671437.528845666442066, 1170243.155647543026134 ], [ 2671363.06930465111509, 1170268.903339295880869 ], [ 2671309.486270462162793, 1170233.413277690531686 ] ] ] ] } },
{ "type": "Feature", "properties": { "id": 15 }, "geometry": { "type": "MultiPolygon", "coordinates": [ [ [ [ 2671762.506468602921814, 1170266.119805052410811 ], [ 2671795.908879525959492, 1170202.098517450271174 ], [ 2671925.343221851624548, 1170259.160969443386421 ], [ 2671955.962098530959338, 1170325.965791288996115 ], [ 2671883.590208198409528, 1170380.244709038641304 ], [ 2671804.259482256602496, 1170405.296517230803147 ], [ 2671762.506468602921814, 1170266.119805052410811 ] ] ] ] } },
{ "type": "Feature", "properties": { "id": 16 }, "geometry": { "type": "MultiPolygon", "coordinates": [ [ [ [ 2671349.151633433066308, 1170772.723037381889299 ], [ 2671402.038784061092883, 1170842.311393471201882 ], [ 2671505.029551072977483, 1170903.54914682963863 ], [ 2671602.453249597921968, 1170850.661996201844886 ], [ 2671582.968509892933071, 1170796.383078452199697 ], [ 2671524.51429077796638, 1170747.671229189727455 ], [ 2671468.843605906702578, 1170728.186489484738559 ], [ 2671386.729345721192658, 1170732.361790850292891 ], [ 2671349.151633433066308, 1170772.723037381889299 ] ] ] ] } },
{ "type": "Feature", "properties": { "id": 17 }, "geometry": { "type": "MultiPolygon", "coordinates": [ [ [ [ 2671794.517112404108047, 1170963.395133066223934 ], [ 2671832.094824692234397, 1171002.364612476201728 ], [ 2671908.64201639033854, 1170996.797543989028782 ], [ 2672015.808084767777473, 1170904.940913951490074 ], [ 2671987.972742332145572, 1170859.01259893248789 ], [ 2671866.889002736657858, 1170878.497338637476787 ], [ 2671794.517112404108047, 1170963.395133066223934 ] ] ] ] } },
{ "type": "Feature", "properties": { "id": 18 }, "geometry": { "type": "MultiPolygon", "coordinates": [ [ [ [ 2672641.407406009733677, 1171457.472461299737915 ], [ 2672677.593351176008582, 1171534.019652997842059 ], [ 2672778.496467505116016, 1171531.932002315064892 ], [ 2672813.290645550005138, 1171449.121858569094911 ], [ 2672782.671768870670348, 1171412.935913402587175 ], [ 2672687.335721028503031, 1171427.549468181328848 ], [ 2672641.407406009733677, 1171457.472461299737915 ] ] ] ] } },
{ "type": "Feature", "properties": { "id": 19 }, "geometry": { "type": "MultiPolygon", "coordinates": [ [ [ [ 2672895.404905734583735, 1171618.221563865663484 ], [ 2672939.941453631967306, 1171685.722269272198901 ], [ 2673004.658624794799834, 1171713.557611707830802 ], [ 2673097.907021954189986, 1171643.969255618518218 ], [ 2673093.731720589101315, 1171576.468550211982802 ], [ 2673020.663946695160121, 1171522.885516023496166 ], [ 2672895.404905734583735, 1171618.221563865663484 ] ] ] ] } },
{ "type": "Feature", "properties": { "id": 20 }, "geometry": { "type": "MultiPolygon", "coordinates": [ [ [ [ 2671818.177153473254293, 1171797.411580795422196 ], [ 2671851.927506176754832, 1171776.187132188118994 ], [ 2671915.600851998198777, 1171809.241601330460981 ], [ 2671950.3950300430879, 1171808.893659549998119 ], [ 2671951.090913604013622, 1171884.397025906713679 ], [ 2671897.855821195524186, 1171891.007919735275209 ], [ 2671852.623389737680554, 1171868.391704006353393 ], [ 2671818.177153473254293, 1171797.411580795422196 ] ] ] ] } },
{ "type": "Feature", "properties": { "id": 21 }, "geometry": { "type": "MultiPolygon", "coordinates": [ [ [ [ 2671688.742811146657914, 1172172.144878335297108 ], [ 2671823.048338398803025, 1172073.32941268873401 ], [ 2671914.904968436341733, 1172153.356022191233933 ], [ 2671923.951454727910459, 1172191.629618040286005 ], [ 2671953.874447846319526, 1172222.944378280546516 ], [ 2671903.074947901070118, 1172284.182131638983265 ], [ 2671791.037694597616792, 1172324.543378170812503 ], [ 2671683.871626220177859, 1172234.7743988155853 ], [ 2671688.742811146657914, 1172172.144878335297108 ] ] ] ] } },
{ "type": "Feature", "properties": { "id": 22 }, "geometry": { "type": "MultiPolygon", "coordinates": [ [ [ [ 2671948.307379359379411, 1172298.099802856799215 ], [ 2672014.416317644063383, 1172229.207330328412354 ], [ 2672098.618228511884809, 1172314.801008318318054 ], [ 2672120.190618899650872, 1172359.337556215235963 ], [ 2672058.256981980055571, 1172404.569987673312426 ], [ 2671977.534488916862756, 1172415.008241086732596 ], [ 2671947.611495798453689, 1172366.296391824260354 ], [ 2671948.307379359379411, 1172298.099802856799215 ] ] ] ] } },
{ "type": "Feature", "properties": { "id": 23 }, "geometry": { "type": "MultiPolygon", "coordinates": [ [ [ [ 2671387.425229280721396, 1172830.102785159135237 ], [ 2671462.580653856974095, 1172789.741538627305999 ], [ 2671532.169009946286678, 1172866.984613886335865 ], [ 2671539.82372911600396, 1172896.21172344381921 ], [ 2671518.947222289163619, 1172946.315339827910066 ], [ 2671453.534167565405369, 1173048.610223279101774 ], [ 2671402.038784059230238, 1173049.306106840027496 ], [ 2671358.894003284163773, 1172955.361826119478792 ], [ 2671387.425229280721396, 1172830.102785159135237 ] ] ] ] } },
{ "type": "Feature", "properties": { "id": 24 }, "geometry": { "type": "MultiPolygon", "coordinates": [ [ [ [ 2671901.683180780149996, 1173074.35791503242217 ], [ 2671982.405673843808472, 1173095.930305420188233 ], [ 2672042.251660080626607, 1173139.770969756180421 ], [ 2672031.117523106280714, 1173160.647476583020762 ], [ 2672003.282180670648813, 1173185.699284775182605 ], [ 2671957.353865651413798, 1173166.214545070193708 ], [ 2671923.951454728841782, 1173135.595668390858918 ], [ 2671892.63669448858127, 1173130.028599903685972 ], [ 2671884.286091757938266, 1173120.286230051191524 ], [ 2671882.894324636086822, 1173096.626188980881125 ], [ 2671901.683180780149996, 1173074.35791503242217 ] ] ] ] } }
]
}
